[
    {
        "Altitude(m)": 705151.377914043,
        "Argument of Periapsis(deg)": 0.011390121186627068,
        "Eccentricity": 0.0,
        "Inclination(deg)": 45.0,
        "Latitude(deg)": 34.97378780987464,
        "Longitude(deg)": 135.13800255629369,
        "Mean Anomaly(deg)": 126.07871664748085,
        "RAAN(deg)": 99.9892480585418,
        "Satellite Name": "Constellation 1 447",
        "Satellite Number": 447,
        "Semi-Major Axis(m)": 7083131.272910544,
        "Time(s)": 190
    },
    {
        "Altitude(m)": 705145.4390925476,
        "Argument of Periapsis(deg)": 0.011450069192872472,
        "Eccentricity": 0.0,
        "Inclination(deg)": 45.0,
        "Latitude(deg)": 34.94282029960696,
        "Longitude(deg)": 135.19757557295495,
        "Mean Anomaly(deg)": 126.13941778773074,
        "RAAN(deg)": 99.98919146937622,
        "Satellite Name": "Constellation 1 447",
        "Satellite Number": 447,
        "Semi-Major Axis(m)": 7083131.272910544,
        "Time(s)": 191
    },
    {
        "Altitude(m)": 705139.4987910752,
        "Argument of Periapsis(deg)": 0.01151001719911788,
        "Eccentricity": 0.0,
        "Inclination(deg)": 45.0,
        "Latitude(deg)": 34.91181928376622,
        "Longitude(deg)": 135.2571007330228,
        "Mean Anomaly(deg)": 126.20011892798061,
        "RAAN(deg)": 99.98913488021066,
        "Satellite Name": "Constellation 1 447",
        "Satellite Number": 447,
        "Semi-Major Axis(m)": 7083131.272910544,
        "Time(s)": 192
    },
    {
        "Altitude(m)": 705133.557047571,
        "Argument of Periapsis(deg)": 0.011569965205363285,
        "Eccentricity": 0.0,
        "Inclination(deg)": 45.0,
        "Latitude(deg)": 34.88078482527777,
        "Longitude(deg)": 135.31657790799002,
        "Mean Anomaly(deg)": 126.26082006823052,
        "RAAN(deg)": 99.98907829104508,
        "Satellite Name": "Constellation 1 447",
        "Satellite Number": 447,
        "Semi-Major Axis(m)": 7083131.272910544,
        "Time(s)": 193
    },
    {
        "Altitude(m)": 705127.6138999787,
        "Argument of Periapsis(deg)": 0.01162991321160869,
        "Eccentricity": 0.0,
        "Inclination(deg)": 45.0,
        "Latitude(deg)": 34.84971698700205,
        "Longitude(deg)": 135.37600747383897,
        "Mean Anomaly(deg)": 126.32152120848043,
        "RAAN(deg)": 99.98902170187951,
        "Satellite Name": "Constellation 1 447",
        "Satellite Number": 447,
        "Semi-Major Axis(m)": 7083131.272910544,
        "Time(s)": 194
    },
    {
        "Altitude(m)": 705121.6693862862,
        "Argument of Periapsis(deg)": 0.011689861217854095,
        "Eccentricity": 0.0,
        "Inclination(deg)": 45.0,
        "Latitude(deg)": 34.818615831735556,
        "Longitude(deg)": 135.43538930245714,
        "Mean Anomaly(deg)": 126.38222234873032,
        "RAAN(deg)": 99.98896511271396,
        "Satellite Name": "Constellation 1 447",
        "Satellite Number": 447,
        "Semi-Major Axis(m)": 7083131.272910544,
        "Time(s)": 195
    },
    {
        "Altitude(m)": 705115.723544489,
        "Argument of Periapsis(deg)": 0.0117498092240995,
        "Eccentricity": 0.0,
        "Inclination(deg)": 45.0,
        "Latitude(deg)": 34.787481422209964,
        "Longitude(deg)": 135.49472343402522,
        "Mean Anomaly(deg)": 126.44292348898021,
        "RAAN(deg)": 99.98890852354837,
        "Satellite Name": "Constellation 1 447",
        "Satellite Number": 447,
        "Semi-Major Axis(m)": 7083131.272910544,
        "Time(s)": 196
    },
    {
        "Altitude(m)": 705109.7764126149,
        "Argument of Periapsis(deg)": 0.011809757230344905,
        "Eccentricity": 0.0,
        "Inclination(deg)": 45.0,
        "Latitude(deg)": 34.75631382109195,
        "Longitude(deg)": 135.55400990891823,
        "Mean Anomaly(deg)": 126.50362462923009,
        "RAAN(deg)": 99.98885193438281,
        "Satellite Name": "Constellation 1 447",
        "Satellite Number": 447,
        "Semi-Major Axis(m)": 7083131.272910544,
        "Time(s)": 197
    },
    {
        "Altitude(m)": 705103.8280287071,
        "Argument of Periapsis(deg)": 0.011869705236590313,
        "Eccentricity": 0.0,
        "Inclination(deg)": 45.0,
        "Latitude(deg)": 34.72511309098328,
        "Longitude(deg)": 135.6132487677045,
        "Mean Anomaly(deg)": 126.56432576948,
        "RAAN(deg)": 99.98879534521723,
        "Satellite Name": "Constellation 1 447",
        "Satellite Number": 447,
        "Semi-Major Axis(m)": 7083131.272910544,
        "Time(s)": 198
    },
    {
        "Altitude(m)": 705097.8784308359,
        "Argument of Periapsis(deg)": 0.011929653242835719,
        "Eccentricity": 0.0,
        "Inclination(deg)": 45.0,
        "Latitude(deg)": 34.69387929442049,
        "Longitude(deg)": 135.67244005114455,
        "Mean Anomaly(deg)": 126.62502690972991,
        "RAAN(deg)": 99.98873875605167,
        "Satellite Name": "Constellation 1 447",
        "Satellite Number": 447,
        "Semi-Major Axis(m)": 7083131.272910544,
        "Time(s)": 199
    }
]